[
  {
    "postcode": 3000,
    "region": "Inner Melbourne"
  },
  {
    "postcode": 3001,
    "region": "Inner Melbourne"
  },
  {
    "postcode": 3002,
    "region": "Inner Melbourne"
  },
  {
    "postcode": 3003,
    "region": "Inner Melbourne"
  },
  {
    "postcode": 3004,
    "region": "Inner Melbourne"
  },
  {
    "postcode": 3005,
    "region": "Inner Melbourne"
  },
  {
    "postcode": 3006,
    "region": "Inner Melbourne"
  },
  {
    "postcode": 3007,
    "region": "Inner Melbourne"
  },
  {
    "postcode": 3008,
    "region": "Inner Melbourne"
  },
  {
    "postcode": 3050,
    "region": "Inner Melbourne"
  },
  {
    "postcode": 3051,
    "region": "Inner Melbourne"
  },
  {
    "postcode": 3052,
    "region": "Inner Melbourne"
  },
  {
    "postcode": 3053,
    "region": "Inner Melbourne"
  },
  {
    "postcode": 3054,
    "region": "Inner Melbourne"
  },
  {
    "postcode": 3055,
    "region": "Inner Melbourne"
  },
  {
    "postcode": 3056,
    "region": "Inner Melbourne"
  },
  {
    "postcode": 3057,
    "region": "Inner Melbourne"
  },
  {
    "postcode": 3058,
    "region": "Inner Melbourne"
  },
  {
    "postcode": 3059,
    "region": "Inner Melbourne"
  },
  {
    "postcode": 3060,
    "region": "Northern Suburbs"
  },
  {
    "postcode": 3061,
    "region": "Northern Suburbs"
  },
  {
    "postcode": 3062,
    "region": "Northern Suburbs"
  },
  {
    "postcode": 3063,
    "region": "Northern Suburbs"
  },
  {
    "postcode": 3064,
    "region": "Northern Suburbs"
  },
  {
    "postcode": 3065,
    "region": "Northern Suburbs"
  },
  {
    "postcode": 3066,
    "region": "Northern Suburbs"
  },
  {
    "postcode": 3067,
    "region": "Northern Suburbs"
  },
  {
    "postcode": 3068,
    "region": "Northern Suburbs"
  },
  {
    "postcode": 3069,
    "region": "Northern Suburbs"
  },
  {
    "postcode": 3070,
    "region": "Northern Suburbs"
  },
  {
    "postcode": 3071,
    "region": "Northern Suburbs"
  },
  {
    "postcode": 3072,
    "region": "Northern Suburbs"
  },
  {
    "postcode": 3073,
    "region": "Northern Suburbs"
  },
  {
    "postcode": 3074,
    "region": "Northern Suburbs"
  },
  {
    "postcode": 3075,
    "region": "Northern Suburbs"
  },
  {
    "postcode": 3076,
    "region": "Northern Suburbs"
  },
  {
    "postcode": 3077,
    "region": "Northern Suburbs"
  },
  {
    "postcode": 3078,
    "region": "Northern Suburbs"
  },
  {
    "postcode": 3079,
    "region": "Northern Suburbs"
  },
  {
    "postcode": 3080,
    "region": "Northern Suburbs"
  },
  {
    "postcode": 3081,
    "region": "Northern Suburbs"
  },
  {
    "postcode": 3082,
    "region": "Northern Suburbs"
  },
  {
    "postcode": 3083,
    "region": "Northern Suburbs"
  },
  {
    "postcode": 3084,
    "region": "Northern Suburbs"
  },
  {
    "postcode": 3085,
    "region": "Northern Suburbs"
  },
  {
    "postcode": 3086,
    "region": "Northern Suburbs"
  },
  {
    "postcode": 3087,
    "region": "Northern Suburbs"
  },
  {
    "postcode": 3088,
    "region": "Northern Suburbs"
  },
  {
    "postcode": 3089,
    "region": "Northern Suburbs"
  },
  {
    "postcode": 3090,
    "region": "Northern Suburbs"
  },
  {
    "postcode": 3091,
    "region": "Northern Suburbs"
  },
  {
    "postcode": 3092,
    "region": "Northern Suburbs"
  },
  {
    "postcode": 3093,
    "region": "Northern Suburbs"
  },
  {
    "postcode": 3094,
    "region": "Northern Suburbs"
  },
  {
    "postcode": 3095,
    "region": "Northern Suburbs"
  },
  {
    "postcode": 3096,
    "region": "Northern Suburbs"
  },
  {
    "postcode": 3097,
    "region": "Northern Suburbs"
  },
  {
    "postcode": 3100,
    "region": "Eastern & South-Eastern Suburbs"
  },
  {
    "postcode": 3101,
    "region": "Eastern & South-Eastern Suburbs"
  },
  {
    "postcode": 3102,
    "region": "Eastern & South-Eastern Suburbs"
  },
  {
    "postcode": 3103,
    "region": "Eastern & South-Eastern Suburbs"
  },
  {
    "postcode": 3104,
    "region": "Eastern & South-Eastern Suburbs"
  },
  {
    "postcode": 3105,
    "region": "Eastern & South-Eastern Suburbs"
  },
  {
    "postcode": 3106,
    "region": "Eastern & South-Eastern Suburbs"
  },
  {
    "postcode": 3107,
    "region": "Eastern & South-Eastern Suburbs"
  },
  {
    "postcode": 3108,
    "region": "Eastern & South-Eastern Suburbs"
  },
  {
    "postcode": 3109,
    "region": "Eastern & South-Eastern Suburbs"
  },
  {
    "postcode": 3110,
    "region": "Eastern & South-Eastern Suburbs"
  },
  {
    "postcode": 3111,
    "region": "Eastern & South-Eastern Suburbs"
  },
  {
    "postcode": 3112,
    "region": "Eastern & South-Eastern Suburbs"
  },
  {
    "postcode": 3113,
    "region": "Eastern & South-Eastern Suburbs"
  },
  {
    "postcode": 3114,
    "region": "Eastern & South-Eastern Suburbs"
  },
  {
    "postcode": 3115,
    "region": "Eastern & South-Eastern Suburbs"
  },
  {
    "postcode": 3116,
    "region": "Eastern & South-Eastern Suburbs"
  },
  {
    "postcode": 3117,
    "region": "Eastern & South-Eastern Suburbs"
  },
  {
    "postcode": 3118,
    "region": "Eastern & South-Eastern Suburbs"
  },
  {
    "postcode": 3119,
    "region": "Eastern & South-Eastern Suburbs"
  },
  {
    "postcode": 3120,
    "region": "Eastern & South-Eastern Suburbs"
  },
  {
    "postcode": 3121,
    "region": "Eastern & South-Eastern Suburbs"
  },
  {
    "postcode": 3122,
    "region": "Eastern & South-Eastern Suburbs"
  },
  {
    "postcode": 3123,
    "region": "Eastern & South-Eastern Suburbs"
  },
  {
    "postcode": 3124,
    "region": "Eastern & South-Eastern Suburbs"
  },
  {
    "postcode": 3125,
    "region": "Eastern & South-Eastern Suburbs"
  },
  {
    "postcode": 3126,
    "region": "Eastern & South-Eastern Suburbs"
  },
  {
    "postcode": 3127,
    "region": "Eastern & South-Eastern Suburbs"
  },
  {
    "postcode": 3128,
    "region": "Eastern & South-Eastern Suburbs"
  },
  {
    "postcode": 3129,
    "region": "Eastern & South-Eastern Suburbs"
  },
  {
    "postcode": 3130,
    "region": "Eastern & South-Eastern Suburbs"
  },
  {
    "postcode": 3131,
    "region": "Eastern & South-Eastern Suburbs"
  },
  {
    "postcode": 3132,
    "region": "Eastern & South-Eastern Suburbs"
  },
  {
    "postcode": 3133,
    "region": "Eastern & South-Eastern Suburbs"
  },
  {
    "postcode": 3134,
    "region": "Eastern & South-Eastern Suburbs"
  },
  {
    "postcode": 3135,
    "region": "Eastern & South-Eastern Suburbs"
  },
  {
    "postcode": 3136,
    "region": "Eastern & South-Eastern Suburbs"
  },
  {
    "postcode": 3137,
    "region": "Eastern & South-Eastern Suburbs"
  },
  {
    "postcode": 3138,
    "region": "Eastern & South-Eastern Suburbs"
  },
  {
    "postcode": 3139,
    "region": "Eastern & South-Eastern Suburbs"
  },
  {
    "postcode": 3140,
    "region": "Eastern & South-Eastern Suburbs"
  },
  {
    "postcode": 3141,
    "region": "Eastern & South-Eastern Suburbs"
  },
  {
    "postcode": 3142,
    "region": "Eastern & South-Eastern Suburbs"
  },
  {
    "postcode": 3143,
    "region": "Eastern & South-Eastern Suburbs"
  },
  {
    "postcode": 3144,
    "region": "Eastern & South-Eastern Suburbs"
  },
  {
    "postcode": 3145,
    "region": "Eastern & South-Eastern Suburbs"
  },
  {
    "postcode": 3146,
    "region": "Eastern & South-Eastern Suburbs"
  },
  {
    "postcode": 3147,
    "region": "Eastern & South-Eastern Suburbs"
  },
  {
    "postcode": 3148,
    "region": "Eastern & South-Eastern Suburbs"
  },
  {
    "postcode": 3149,
    "region": "Eastern & South-Eastern Suburbs"
  },
  {
    "postcode": 3150,
    "region": "Eastern & South-Eastern Suburbs"
  },
  {
    "postcode": 3151,
    "region": "Eastern & South-Eastern Suburbs"
  },
  {
    "postcode": 3152,
    "region": "Eastern & South-Eastern Suburbs"
  },
  {
    "postcode": 3153,
    "region": "Eastern & South-Eastern Suburbs"
  },
  {
    "postcode": 3154,
    "region": "Eastern & South-Eastern Suburbs"
  },
  {
    "postcode": 3155,
    "region": "Eastern & South-Eastern Suburbs"
  },
  {
    "postcode": 3156,
    "region": "Eastern & South-Eastern Suburbs"
  },
  {
    "postcode": 3157,
    "region": "Eastern & South-Eastern Suburbs"
  },
  {
    "postcode": 3158,
    "region": "Eastern & South-Eastern Suburbs"
  },
  {
    "postcode": 3159,
    "region": "Eastern & South-Eastern Suburbs"
  },
  {
    "postcode": 3160,
    "region": "Eastern & South-Eastern Suburbs"
  },
  {
    "postcode": 3161,
    "region": "Eastern & South-Eastern Suburbs"
  },
  {
    "postcode": 3162,
    "region": "Eastern & South-Eastern Suburbs"
  },
  {
    "postcode": 3163,
    "region": "Eastern & South-Eastern Suburbs"
  },
  {
    "postcode": 3164,
    "region": "Eastern & South-Eastern Suburbs"
  },
  {
    "postcode": 3165,
    "region": "Eastern & South-Eastern Suburbs"
  },
  {
    "postcode": 3166,
    "region": "Eastern & South-Eastern Suburbs"
  },
  {
    "postcode": 3167,
    "region": "Eastern & South-Eastern Suburbs"
  },
  {
    "postcode": 3168,
    "region": "Eastern & South-Eastern Suburbs"
  },
  {
    "postcode": 3169,
    "region": "Eastern & South-Eastern Suburbs"
  },
  {
    "postcode": 3170,
    "region": "Eastern & South-Eastern Suburbs"
  },
  {
    "postcode": 3171,
    "region": "Eastern & South-Eastern Suburbs"
  },
  {
    "postcode": 3172,
    "region": "Eastern & South-Eastern Suburbs"
  },
  {
    "postcode": 3173,
    "region": "Eastern & South-Eastern Suburbs"
  },
  {
    "postcode": 3174,
    "region": "Eastern & South-Eastern Suburbs"
  },
  {
    "postcode": 3175,
    "region": "Eastern & South-Eastern Suburbs"
  },
  {
    "postcode": 3176,
    "region": "Eastern & South-Eastern Suburbs"
  },
  {
    "postcode": 3177,
    "region": "Eastern & South-Eastern Suburbs"
  },
  {
    "postcode": 3178,
    "region": "Eastern & South-Eastern Suburbs"
  },
  {
    "postcode": 3179,
    "region": "Eastern & South-Eastern Suburbs"
  },
  {
    "postcode": 3180,
    "region": "Eastern & South-Eastern Suburbs"
  },
  {
    "postcode": 3181,
    "region": "Eastern & South-Eastern Suburbs"
  },
  {
    "postcode": 3182,
    "region": "Eastern & South-Eastern Suburbs"
  },
  {
    "postcode": 3183,
    "region": "Eastern & South-Eastern Suburbs"
  },
  {
    "postcode": 3184,
    "region": "Eastern & South-Eastern Suburbs"
  },
  {
    "postcode": 3185,
    "region": "Eastern & South-Eastern Suburbs"
  },
  {
    "postcode": 3186,
    "region": "Eastern & South-Eastern Suburbs"
  },
  {
    "postcode": 3187,
    "region": "Eastern & South-Eastern Suburbs"
  },
  {
    "postcode": 3188,
    "region": "Eastern & South-Eastern Suburbs"
  },
  {
    "postcode": 3189,
    "region": "Eastern & South-Eastern Suburbs"
  },
  {
    "postcode": 3190,
    "region": "Eastern & South-Eastern Suburbs"
  },
  {
    "postcode": 3191,
    "region": "Eastern & South-Eastern Suburbs"
  },
  {
    "postcode": 3192,
    "region": "Eastern & South-Eastern Suburbs"
  },
  {
    "postcode": 3193,
    "region": "Eastern & South-Eastern Suburbs"
  },
  {
    "postcode": 3194,
    "region": "Eastern & South-Eastern Suburbs"
  },
  {
    "postcode": 3195,
    "region": "Eastern & South-Eastern Suburbs"
  },
  {
    "postcode": 3196,
    "region": "Eastern & South-Eastern Suburbs"
  },
  {
    "postcode": 3197,
    "region": "Eastern & South-Eastern Suburbs"
  },
  {
    "postcode": 3198,
    "region": "Eastern & South-Eastern Suburbs"
  },
  {
    "postcode": 3199,
    "region": "Eastern & South-Eastern Suburbs"
  },
  {
    "postcode": 3010,
    "region": "Western Suburbs"
  },
  {
    "postcode": 3011,
    "region": "Western Suburbs"
  },
  {
    "postcode": 3012,
    "region": "Western Suburbs"
  },
  {
    "postcode": 3013,
    "region": "Western Suburbs"
  },
  {
    "postcode": 3014,
    "region": "Western Suburbs"
  },
  {
    "postcode": 3015,
    "region": "Western Suburbs"
  },
  {
    "postcode": 3016,
    "region": "Western Suburbs"
  },
  {
    "postcode": 3017,
    "region": "Western Suburbs"
  },
  {
    "postcode": 3018,
    "region": "Western Suburbs"
  },
  {
    "postcode": 3019,
    "region": "Western Suburbs"
  },
  {
    "postcode": 3020,
    "region": "Western Suburbs"
  },
  {
    "postcode": 3021,
    "region": "Western Suburbs"
  },
  {
    "postcode": 3022,
    "region": "Western Suburbs"
  },
  {
    "postcode": 3023,
    "region": "Western Suburbs"
  },
  {
    "postcode": 3024,
    "region": "Western Suburbs"
  },
  {
    "postcode": 3025,
    "region": "Western Suburbs"
  },
  {
    "postcode": 3026,
    "region": "Western Suburbs"
  },
  {
    "postcode": 3027,
    "region": "Western Suburbs"
  },
  {
    "postcode": 3028,
    "region": "Western Suburbs"
  },
  {
    "postcode": 3029,
    "region": "Western Suburbs"
  },
  {
    "postcode": 3030,
    "region": "Western Suburbs"
  },
  {
    "postcode": 3031,
    "region": "Western Suburbs"
  },
  {
    "postcode": 3032,
    "region": "Western Suburbs"
  },
  {
    "postcode": 3033,
    "region": "Western Suburbs"
  },
  {
    "postcode": 3034,
    "region": "Western Suburbs"
  },
  {
    "postcode": 3035,
    "region": "Western Suburbs"
  },
  {
    "postcode": 3036,
    "region": "Western Suburbs"
  },
  {
    "postcode": 3037,
    "region": "Western Suburbs"
  },
  {
    "postcode": 3038,
    "region": "Western Suburbs"
  },
  {
    "postcode": 3039,
    "region": "Western Suburbs"
  },
  {
    "postcode": 3020,
    "region": "Western Suburbs"
  },
  {
    "postcode": 3021,
    "region": "Western Suburbs"
  },
  {
    "postcode": 3022,
    "region": "Western Suburbs"
  },
  {
    "postcode": 3023,
    "region": "Western Suburbs"
  },
  {
    "postcode": 3024,
    "region": "Western Suburbs"
  },
  {
    "postcode": 3025,
    "region": "Western Suburbs"
  },
  {
    "postcode": 3026,
    "region": "Western Suburbs"
  },
  {
    "postcode": 3027,
    "region": "Western Suburbs"
  },
  {
    "postcode": 3028,
    "region": "Western Suburbs"
  },
  {
    "postcode": 3029,
    "region": "Western Suburbs"
  },
  {
    "postcode": 3030,
    "region": "Western Suburbs"
  }
]
